{
  "type": "FeatureCollection",
  "features": [
    {
      "type": "Feature",
      "properties": {
        "norad_id": 50032,
        "name": "COSMOS 1408 DEB",
        "group": "cosmos-1408-debris",
        "lat": 52.07128161840997,
        "lon": -136.18136042662977,
        "alt_km": 419.52212156921814,
        "timestamp": "2025-12-17T15:50:10.050009+00:00",
        "meta_object_name": "COSMOS 1408 DEB",
        "meta_object_id": "1982-092RU",
        "meta_epoch": "2025-12-17T04:24:39.781728",
        "meta_mean_motion": 15.45739221,
        "meta_eccentricity": 0.00156718,
        "meta_inclination": 82.5644,
        "meta_ra_of_asc_node": 53.9544,
        "meta_arg_of_pericenter": 191.7803,
        "meta_mean_anomaly": 168.3082,
        "meta_ephemeris_type": 0,
        "meta_classification_type": "U",
        "meta_norad_cat_id": 50032,
        "meta_element_set_no": 999,
        "meta_rev_at_epoch": 22672,
        "meta_bstar": 8.9414355e-05,
        "meta_mean_motion_dot": 4.382e-05,
        "meta_mean_motion_ddot": 0,
        "tle_line1": "1 50032U 82092RU  25351.18379377  .00004382  00000+0  89414-4 0  9998",
        "tle_line2": "2 50032  82.5644  53.9544 0015671 191.7803 168.3082 15.45739221226726"
      },
      "geometry": {
        "type": "Point",
        "coordinates": [
          -136.18136042662977,
          52.07128161840997
        ]
      }
    },
    {
      "type": "Feature",
      "properties": {
        "norad_id": 50058,
        "name": "COSMOS 1408 DEB",
        "group": "cosmos-1408-debris",
        "lat": -62.242010989563035,
        "lon": 49.92100359683703,
        "alt_km": 391.17893431834,
        "timestamp": "2025-12-17T15:50:10.050031+00:00",
        "meta_object_name": "COSMOS 1408 DEB",
        "meta_object_id": "1982-092SW",
        "meta_epoch": "2025-12-17T05:21:35.774208",
        "meta_mean_motion": 15.64375305,
        "meta_eccentricity": 0.00162314,
        "meta_inclination": 82.6132,
        "meta_ra_of_asc_node": 64.6489,
        "meta_arg_of_pericenter": 83.6541,
        "meta_mean_anomaly": 276.6566,
        "meta_ephemeris_type": 0,
        "meta_classification_type": "U",
        "meta_norad_cat_id": 50058,
        "meta_element_set_no": 999,
        "meta_rev_at_epoch": 22874,
        "meta_bstar": 0.0002855242,
        "meta_mean_motion_dot": 0.00027578,
        "meta_mean_motion_ddot": 0,
        "tle_line1": "1 50058U 82092SW  25351.22333072  .00027578  00000+0  28552-3 0  9990",
        "tle_line2": "2 50058  82.6132  64.6489 0016231  83.6541 276.6566 15.64375305228749"
      },
      "geometry": {
        "type": "Point",
        "coordinates": [
          49.92100359683703,
          -62.242010989563035
        ]
      }
    },
    {
      "type": "Feature",
      "properties": {
        "norad_id": 50404,
        "name": "COSMOS 1408 DEB",
        "group": "cosmos-1408-debris",
        "lat": -62.65092674675501,
        "lon": 45.35403160241098,
        "alt_km": 472.22157727479043,
        "timestamp": "2025-12-17T15:50:10.050045+00:00",
        "meta_object_name": "COSMOS 1408 DEB",
        "meta_object_id": "1982-092ADS",
        "meta_epoch": "2025-12-17T02:05:05.919648",
        "meta_mean_motion": 15.14463504,
        "meta_eccentricity": 0.01702579,
        "meta_inclination": 82.2039,
        "meta_ra_of_asc_node": 210.5807,
        "meta_arg_of_pericenter": 184.002,
        "meta_mean_anomaly": 175.9865,
        "meta_ephemeris_type": 0,
        "meta_classification_type": "U",
        "meta_norad_cat_id": 50404,
        "meta_element_set_no": 999,
        "meta_rev_at_epoch": 21259,
        "meta_bstar": 0.0024996943,
        "meta_mean_motion_dot": 0.00066739,
        "meta_mean_motion_ddot": 0,
        "tle_line1": "1 50404U 82092ADS 25351.08687407  .00066739  00000+0  24997-2 0  9993",
        "tle_line2": "2 50404  82.2039 210.5807 0170257 184.0020 175.9865 15.14463504212592"
      },
      "geometry": {
        "type": "Point",
        "coordinates": [
          45.35403160241098,
          -62.65092674675501
        ]
      }
    },
    {
      "type": "Feature",
      "properties": {
        "norad_id": 50621,
        "name": "COSMOS 1408 DEB",
        "group": "cosmos-1408-debris",
        "lat": -1.7237093081157167,
        "lon": -110.71691341004733,
        "alt_km": 386.57785493563733,
        "timestamp": "2025-12-17T15:50:10.050057+00:00",
        "meta_object_name": "COSMOS 1408 DEB",
        "meta_object_id": "1982-092ALR",
        "meta_epoch": "2025-12-16T20:32:59.843616",
        "meta_mean_motion": 15.56878541,
        "meta_eccentricity": 0.00289885,
        "meta_inclination": 82.5705,
        "meta_ra_of_asc_node": 69.8949,
        "meta_arg_of_pericenter": 137.3743,
        "meta_mean_anomaly": 222.9769,
        "meta_ephemeris_type": 0,
        "meta_classification_type": "U",
        "meta_norad_cat_id": 50621,
        "meta_element_set_no": 999,
        "meta_rev_at_epoch": 22314,
        "meta_bstar": 0.00031797579,
        "meta_mean_motion_dot": 0.00023354,
        "meta_mean_motion_ddot": 0,
        "tle_line1": "1 50621U 82092ALR 25350.85624819  .00023354  00000+0  31798-3 0  9990",
        "tle_line2": "2 50621  82.5705  69.8949 0028988 137.3743 222.9769 15.56878541223140"
      },
      "geometry": {
        "type": "Point",
        "coordinates": [
          -110.71691341004733,
          -1.7237093081157167
        ]
      }
    }
  ]
}